stk.v.11.0
WrittenBy    formation-sat-exporter

BEGIN Ephemeris
    NumberOfEphemerisPoints 181
    ScenarioEpoch 21 Mar 2026 07:38:40.000000000
    InterpolationMethod     Lagrange
    InterpolationOrder      7
    CentralBody             Earth
    CoordinateSystem        TEME
    DistanceUnit            Kilometers

    BEGIN EphemerisTimePosVel
        0.000000000  5.82833313264061e+03 -1.40008864802523e+03  3.47184046323021e+03 -3.95479332562443e+00 -2.65538726681843e-01  6.52361225884175e+00
        1.000000000  5.82437833931499e+03 -1.40035418675191e+03  3.47836407548905e+03 -3.95832972958451e+00 -2.64688469744287e-01  6.52150029087509e+00
        2.000000000  5.82041647318144e+03 -1.40061802496471e+03  3.48488346381196e+03 -3.96540013196506e+00 -2.62987795674009e-01  6.51727239654446e+00
        3.000000000  5.81644753905106e+03 -1.40088016234326e+03  3.49139862028214e+03 -3.97246571897808e+00 -2.61286802245886e-01  6.51303658799268e+00
        4.000000000  5.81247154174349e+03 -1.40114059856921e+03  3.49790953698795e+03 -3.97952648204518e+00 -2.59585491525009e-01  6.50879287036462e+00
        5.000000000  5.80848848608697e+03 -1.40139933332630e+03  3.50441620602287e+03 -3.98658241259213e+00 -2.57883865577751e-01  6.50454124881234e+00
        6.000000000  5.80449837691830e+03 -1.40165636630036e+03  3.51091861948557e+03 -3.99363350205077e+00 -2.56181926470599e-01  6.50028172849957e+00
        7.000000000  5.80050121908287e+03 -1.40191169717925e+03  3.51741676947987e+03 -4.00067974185757e+00 -2.54479676269926e-01  6.49601431459794e+00
        8.000000000  5.79649701743459e+03 -1.40216532565290e+03  3.52391064811477e+03 -4.00772112345742e+00 -2.52777117043035e-01  6.49173901229119e+00
        9.000000000  5.79248577683595e+03 -1.40241725141333e+03  3.53040024750445e+03 -4.01475763829937e+00 -2.51074250857229e-01  6.48745582677051e+00
        10.000000000  5.78846750215799e+03 -1.40266747415462e+03  3.53688555976831e+03 -4.02178927783715e+00 -2.49371079780394e-01  6.48316476323502e+00
        11.000000000  5.78444219828028e+03 -1.40291599357289e+03  3.54336657703092e+03 -4.02881603353331e+00 -2.47667605881114e-01  6.47886582689849e+00
        12.000000000  5.78040987009092e+03 -1.40316280936638e+03  3.54984329142211e+03 -4.03583789685555e+00 -2.45963831227971e-01  6.47455902298028e+00
        13.000000000  5.77637052248657e+03 -1.40340792123535e+03  3.55631569507688e+03 -4.04285485927574e+00 -2.44259757889551e-01  6.47024435670907e+00
        14.000000000  5.77232416037237e+03 -1.40365132888216e+03  3.56278378013552e+03 -4.04986691227229e+00 -2.42555387935136e-01  6.46592183332588e+00
        15.000000000  5.76827078866202e+03 -1.40389303201122e+03  3.56924753874354e+03 -4.05687404733058e+00 -2.40850723435055e-01  6.46159145807941e+00
        16.000000000  5.76421041227771e+03 -1.40413303032903e+03  3.57570696305168e+03 -4.06387625594297e+00 -2.39145766458823e-01  6.45725323622790e+00
        17.000000000  5.76014303615014e+03 -1.40437132354414e+03  3.58216204521599e+03 -4.07087352960603e+00 -2.37440519076888e-01  6.45290717304009e+00
        18.000000000  5.75606866521850e+03 -1.40460791136718e+03  3.58861277739776e+03 -4.07786585982097e+00 -2.35734983360395e-01  6.44855327379354e+00
        19.000000000  5.75198730443049e+03 -1.40484279351086e+03  3.59505915176358e+03 -4.08485323809693e+00 -2.34029161379905e-01  6.44419154377375e+00
        20.000000000  5.74789895874230e+03 -1.40507596968994e+03  3.60150116048531e+03 -4.09183565595094e+00 -2.32323055207147e-01  6.43982198827923e+00
        21.000000000  5.74380363311859e+03 -1.40530743962127e+03  3.60793879574014e+03 -4.09881310490146e+00 -2.30616666913964e-01  6.43544461261574e+00
        22.000000000  5.73970133253250e+03 -1.40553720302377e+03  3.61437204971054e+03 -4.10578557647625e+00 -2.28909998572548e-01  6.43105942209857e+00
        23.000000000  5.73559206196564e+03 -1.40576525961842e+03  3.62080091458433e+03 -4.11275306221005e+00 -2.27203052255325e-01  6.42666642205324e+00
        24.000000000  5.73147582640808e+03 -1.40599160912828e+03  3.62722538255465e+03 -4.11971555363992e+00 -2.25495830034837e-01  6.42226561781322e+00
        25.000000000  5.72735263085836e+03 -1.40621625127849e+03  3.63364544581996e+03 -4.12667304231133e+00 -2.23788333984674e-01  6.41785701472452e+00
        26.000000000  5.72322248032346e+03 -1.40643918579625e+03  3.64006109658410e+03 -4.13362551977579e+00 -2.22080566178192e-01  6.41344061813946e+00
        27.000000000  5.71908537981881e+03 -1.40666041241084e+03  3.64647232705624e+03 -4.14057297759038e+00 -2.20372528689099e-01  6.40901643342106e+00
        28.000000000  5.71494133436828e+03 -1.40687993085363e+03  3.65287912945094e+03 -4.14751540731918e+00 -2.18664223591681e-01  6.40458446594281e+00
        29.000000000  5.71079034900417e+03 -1.40709774085803e+03  3.65928149598813e+03 -4.15445280053001e+00 -2.16955652960227e-01  6.40014472108521e+00
        30.000000000  5.70663242876722e+03 -1.40731384215955e+03  3.66567941889311e+03 -4.16138514879951e+00 -2.15246818869608e-01  6.39569720424037e+00
        31.000000000  5.70246757870657e+03 -1.40752823449577e+03  3.67207289039661e+03 -4.16831244371040e+00 -2.13537723395042e-01  6.39124192080950e+00
        32.000000000  5.69829580387980e+03 -1.40774091760634e+03  3.67846190273473e+03 -4.17523467684956e+00 -2.11828368611867e-01  6.38677887620172e+00
        33.000000000  5.69411710935287e+03 -1.40795189123299e+03  3.68484644814901e+03 -4.18215183981136e+00 -2.10118756595883e-01  6.38230807583826e+00
        34.000000000  5.68993150020017e+03 -1.40816115511953e+03  3.69122651888641e+03 -4.18906392419431e+00 -2.08408889423241e-01  6.37782952514733e+00
        35.000000000  5.68573898150448e+03 -1.40836870901184e+03  3.69760210719930e+03 -4.19597092160676e+00 -2.06698769169976e-01  6.37334322956693e+00
        36.000000000  5.68153955835696e+03 -1.40857455265787e+03  3.70397320534554e+03 -4.20287282366166e+00 -2.04988397912937e-01  6.36884919454553e+00
        37.000000000  5.67733323585716e+03 -1.40877868580766e+03  3.71033980558840e+03 -4.20976962197572e+00 -2.03277777729440e-01  6.36434742554091e+00
        38.000000000  5.67312001911301e+03 -1.40898110821333e+03  3.71670190019662e+03 -4.21666130817356e+00 -2.01566910696449e-01  6.35983792801946e+00
        39.000000000  5.66889991324081e+03 -1.40918181962906e+03  3.72305948144443e+03 -4.22354787388910e+00 -1.99855798891513e-01  6.35532070745667e+00
        40.000000000  5.66467292336523e+03 -1.40938081981111e+03  3.72941254161154e+03 -4.23042931075906e+00 -1.98144444392296e-01  6.35079576933850e+00
        41.000000000  5.66043905461929e+03 -1.40957810851784e+03  3.73576107298311e+03 -4.23730561042437e+00 -1.96432849277277e-01  6.34626311915973e+00
        42.000000000  5.65619831214438e+03 -1.40977368550967e+03  3.74210506784986e+03 -4.24417676453665e+00 -1.94721015625168e-01  6.34172276242520e+00
        43.000000000  5.65195070109022e+03 -1.40996755054909e+03  3.74844451850796e+03 -4.25104276475171e+00 -1.93008945514564e-01  6.33717470464716e+00
        44.000000000  5.64769622661488e+03 -1.41015970340069e+03  3.75477941725915e+03 -4.25790360273141e+00 -1.91296641024295e-01  6.33261895134929e+00
        45.000000000  5.64343489388476e+03 -1.41035014383114e+03  3.76110975641066e+03 -4.26475927014602e+00 -1.89584104233538e-01  6.32805550806364e+00
        46.000000000  5.63916670807459e+03 -1.41053887160916e+03  3.76743552827528e+03 -4.27160975866905e+00 -1.87871337222401e-01  6.32348438033252e+00
        47.000000000  5.63489167436742e+03 -1.41072588650558e+03  3.77375672517133e+03 -4.27845505998144e+00 -1.86158342070645e-01  6.31890557370661e+00
        48.000000000  5.63060979795462e+03 -1.41091118829330e+03  3.78007333942269e+03 -4.28529516577069e+00 -1.84445120858145e-01  6.31431909374474e+00
        49.000000000  5.62632108403588e+03 -1.41109477674730e+03  3.78638536335882e+03 -4.29213006773125e+00 -1.82731675665593e-01  6.30972494601784e+00
        50.000000000  5.62202553781916e+03 -1.41127665164463e+03  3.79269278931472e+03 -4.29895975756319e+00 -1.81018008573563e-01  6.30512313610502e+00
        51.000000000  5.61772316452075e+03 -1.41145681276445e+03  3.79899560963102e+03 -4.30578422697121e+00 -1.79304121663212e-01  6.30051366959349e+00
        52.000000000  5.61341396936522e+03 -1.41163525988796e+03  3.80529381665391e+03 -4.31260346766934e+00 -1.77590017015813e-01  6.29589655208145e+00
        53.000000000  5.60909795758541e+03 -1.41181199279848e+03  3.81158740273519e+03 -4.31941747137811e+00 -1.75875696712406e-01  6.29127178917569e+00
        54.000000000  5.60477513442246e+03 -1.41198701128139e+03  3.81787636023226e+03 -4.32622622982133e+00 -1.74161162835429e-01  6.28663938649162e+00
        55.000000000  5.60044550512577e+03 -1.41216031512415e+03  3.82416068150817e+03 -4.33302973472932e+00 -1.72446417466621e-01  6.28199934965512e+00
        56.000000000  5.59610907495300e+03 -1.41233190411632e+03  3.83044035893157e+03 -4.33982797784312e+00 -1.70731462688069e-01  6.27735168430070e+00
        57.000000000  5.59176584917008e+03 -1.41250177804953e+03  3.83671538487677e+03 -4.34662095090607e+00 -1.69016300582793e-01  6.27269639607216e+00
        58.000000000  5.58741583305119e+03 -1.41266993671748e+03  3.84298575172372e+03 -4.35340864566900e+00 -1.67300933233229e-01  6.26803349062265e+00
        59.000000000  5.58305903187875e+03 -1.41283637991599e+03  3.84925145185802e+03 -4.36019105389016e+00 -1.65585362722399e-01  6.26336297361506e+00
        60.000000000  5.57869545094341e+03 -1.41300110744293e+03  3.85551247767095e+03 -4.36696816733154e+00 -1.63869591133785e-01  6.25868485071999e+00
        61.000000000  5.57432509554408e+03 -1.41316411909826e+03  3.86176882155946e+03 -4.37373997776490e+00 -1.62153620550875e-01  6.25399912761804e+00
    END EphemerisTimePosVel
END Ephemeris
